AMGU-1 (AMURSAT)        
1 44394U 19038J   22031.87100894  .00005030  00000+0  27287-3 0  9996
2 44394  97.6155   0.9676 0019103 244.2246 115.7032 15.14872234142345
DOT-1                   
1 44399U 19038P   22031.46377312  .00005212  00000+0  29301-3 0  9998
2 44399  97.6221 359.7372 0022229 249.9964 109.8874 15.13526647142211
SOKRAT                  
1 44404U 19038U   22031.91489715  .00008892  00000+0  48105-3 0  9996
2 44404  97.6184   0.7176 0019315 244.8302 115.0927 15.14736645142336
LUCKY-7                 
1 44406U 19038W   22031.90230780  .00005388  00000+0  29985-3 0  9995
2 44406  97.6217   0.4721 0022066 240.0157 119.8884 15.13872152142293
D-STAR ONE (EXOCONNECT) 
1 44410U 19038AA  22031.85658433  .00013554  00000+0  70308-3 0  9992
2 44410  97.6144   1.1926 0018702 241.1115 118.8241 15.16118869142376
NARSSCUBE-2             
1 44415U 19022E   22031.47070042  .00008014  00000+0  26344-3 0  9998
2 44415  51.6422  59.6109 0010441 284.7959  75.1866 15.32403962139094
DUCHIFAT-3              
1 44854U 19089C   22031.82767341  .00002083  00000+0  17036-3 0  9990
2 44854  36.9645 189.6305 0007136 200.3001 159.7460 15.00042492117407
OPS-SAT                 
1 44878U 19092F   22031.75109108  .00007937  00000+0  39568-3 0  9990
2 44878  97.4746 217.1347 0014685  95.6530 264.6378 15.17719435117443
FLORIPASAT-1            
1 44885U 19093G   22031.76754242  .00000949  00000+0  12441-3 0  9992
2 44885  97.9085 113.8604 0013187 278.9553  81.0161 14.82597185114598
HUSKYSAT-1 (HO-107)     
1 45119U 19071J   22031.64011389  .00019318  00000+0  50468-3 0  9995
2 45119  51.6412   8.4827 0011008  39.8803 320.2988 15.38735841112260
G-SAT                   
1 45597U 98067RK  22031.83952897  .00129917  00000+0  93758-3 0  9992
2 45597  51.6334 254.7417 0003635 147.3042 212.8182 15.72604009100337
QUETZAL-1               
1 45598U 98067RL  22031.85426356  .00326641  00000+0  11741-2 0  9995
2 45598  51.6314 244.9955 0004847 209.3835 150.6898 15.87295044100399
BY70-2                  
1 45857U 20042B   22031.81518369  .00003165  00000+0  44552-3 0  9993
2 45857  97.9669 110.1156 0010933 190.7276 169.3712 14.77988053 85262
SALSAT                  
1 46495U 20068K   22031.78831987  .00002376  00000+0  17683-3 0  9998
2 46495  97.7164 333.2395 0017353  23.6467 336.5552 15.03824735 73646
NETSAT-4                
1 46504U 20068U   22031.82781599  .00001806  00000+0  14013-3 0  9998
2 46504  97.7115 332.0854 0013550  72.5389 287.7315 15.02572703 73526
NETSAT-3                
1 46505U 20068V   22031.77322296  .00002425  00000+0  18687-3 0  9997
2 46505  97.7101 331.9694 0011781  77.1584 283.0957 15.02532991 73520
NETSAT-1                
1 46506U 20068W   22031.78533713  .00001845  00000+0  14358-3 0  9993
2 46506  97.7083 331.9321 0010289  80.6886 279.5510 15.02469042 73524
NETSAT-2                
1 46507U 20068X   22031.79237860  .00001080  00000+0  85965-4 0  9993
2 46507  97.7110 331.9412 0009817  83.8255 276.4100 15.02450208 73476
BY70-3                  
1 46839U 20079N   22031.89825846  .00011108  00000+0  31380-3 0  9994
2 46839  97.2172 106.2701 0008262 102.9627 345.2875 15.36484216 69247
SPOC                    
1 46921U 98067RR  22031.89408527  .00063224  00000+0  66959-3 0  9997
2 46921  51.6377 270.9405 0002450 183.5534 176.5444 15.63520586 70469
BOBCAT-1                
1 46922U 98067RS  22031.90943279  .00166453  00000+0  11997-2 0  9997
2 46922  51.6383 262.8212 0003559 195.0853 165.0040 15.72507653 70540
NEUTRON-1               
1 46923U 98067RT  22031.92790861  .00065902  00000+0  69996-3 0  9997
2 46923  51.6383 271.1714 0002297 191.0622 169.0322 15.63430467 70500
DESCENT                 
1 46927U 98067RX  22031.86136097  .00064241  00000+0  67790-3 0  9994
2 46927  51.6385 271.4742 0002060 205.3654 154.7240 15.63606908 70406
UVSQ-SAT                
1 47438U 21006AB  22031.67332555  .00005149  00000+0  28634-3 0  9993
2 47438  97.4585  93.5282 0013254  35.7754 324.4363 15.14033735 56571
SOMP2B                  
1 47445U 21006AJ  22030.12839867  .00003204  00000+0  18071-3 0  9992
2 47445  97.4562  91.7840 0013126  44.5542 315.6743 15.13804591 56338
WARP-01                 
1 47924U 98067SA  22031.87722707  .00118932  00000+0  11818-2 0  9998
2 47924  51.6369 277.5393 0004522 209.3676 150.7066 15.64853464 50376
RSP-01                  
1 47925U 98067SB  22031.92578039  .00074066  00000+0  84769-3 0  9997
2 47925  51.6398 279.4000 0003198 160.3832 199.7285 15.61458009 50338
TAUSAT-1                
1 47926U 98067SC  22031.92241371  .00121266  00000+0  11863-2 0  9993
2 47926  51.6390 276.3542 0004209 164.6028 195.5096 15.65238717 50369
TSURU                   
1 47927U 98067SD  22031.88106152  .00062804  00000+0  75693-3 0  9990
2 47927  51.6389 280.5972 0003166 158.4326 201.6801 15.60179524 50318
STARS-EC                
1 47928U 98067SE  22031.90917742  .00150919  00000+0  14129-2 0  9990
2 47928  51.6376 277.0157 0004935 212.9222 147.1467 15.66221188 50342
MAYA-2                  
1 47929U 98067SF  22031.87681756  .00060412  00000+0  72921-3 0  9993
2 47929  51.6392 280.5671 0003153 155.4257 204.6887 15.60156033 50278
HIROGARI (OPUSAT-II)    
1 47930U 98067SG  22031.93000754  .00155384  00000+0  13952-2 0  9996
2 47930  51.6369 275.6644 0004067 167.9482 192.1612 15.67244449 50387
GUARANISAT-1            
1 47931U 98067SH  22031.87135312  .00061256  00000+0  73677-3 0  9994
2 47931  51.6402 280.5399 0003189 155.4015 204.7131 15.60243229 50313
DIY-1 (ARDUIQUBE)       
1 47963U 21022AH  22031.68101264  .00014944  00000+0  93663-3 0  9993
2 47963  97.5450 294.9990 0016974 242.9562 116.9935 15.09322336 46299
